NORAD_CAT_ID,OBJECT_NAME,OBJECT_TYPE,EPOCH,MEAN_MOTION,ECCENTRICITY,INCLINATION,RA_OF_ASC_NODE,ARG_OF_PERICENTER,MEAN_ANOMALY,BSTAR,MEAN_MOTION_DOT,MEAN_MOTION_DDOT,TLE_LINE0,TLE_LINE1,TLE_LINE2,SEMIMAJOR_AXIS,PERIOD,APOGEE,PERIGEE,DECAYED
49131.0,STARLINK-3096,PAYLOAD,2022-05-20 06:00:00,15.02977446,0.0003284,70.0001,157.778,283.6942,205.8603,-0.044093,-0.00556206,0.0,0 STARLINK-3096,1 49131U 21082B   22140.25001157 -.00556206  00000-0 -44093-1 0  9998,2 49131  70.0001 157.7780 0003284 283.6942 205.8603 15.02977446 38835,6935.858,95.81,560.001,555.445,0.0
49131.0,STARLINK-3096,PAYLOAD,2022-05-20 14:00:01,15.02585851,0.0003149,69.9997,156.9313,272.1931,220.1809,-0.044397,-0.0055435,0.0,0 STARLINK-3096,1 49131U 21082B   22140.58334491 -.00554350  00000-0 -44397-1 0  9999,2 49131  69.9997 156.9313 0003149 272.1931 220.1809 15.02585851  1305,6937.063,95.835,561.113,556.744,0.0
49131.0,STARLINK-3096,PAYLOAD,2022-05-20 22:00:00,15.02194682,0.0003158,69.9998,156.0855,269.1604,225.5642,-0.045016,-0.00556156,0.0,0 STARLINK-3096,1 49131U 21082B   22140.91667824 -.00556156  00000-0 -45016-1 0  9990,2 49131  69.9998 156.0855 0003158 269.1604 225.5642 15.02194682  1303,6938.267,95.86,562.323,557.941,0.0
49131.0,STARLINK-3096,PAYLOAD,2022-05-21 06:00:00,15.0169232,0.0003249,70.0001,155.2401,280.7739,215.8498,-0.014457,-0.00183598,0.0,0 STARLINK-3096,1 49131U 21082B   22141.25001157 -.00183598  00000-0 -14457-1 0  9990,2 49131  70.0001 155.2401 0003249 280.7739 215.8498 15.01692320  1300,6939.815,95.892,563.934,559.425,0.0
49131.0,STARLINK-3096,PAYLOAD,2022-05-21 14:00:01,15.01568681,0.0003161,69.9997,154.3951,272.3656,225.7542,0.00013444,1.65e-05,0.0,0 STARLINK-3096,1 49131U 21082B   22141.58335648  .00001650  00000-0  13444-3 0  9994,2 49131  69.9997 154.3951 0003161 272.3656 225.7542 15.01568681 39032,6940.196,95.9,564.254,559.867,0.0
49131.0,STARLINK-3096,PAYLOAD,2022-05-21 22:00:00,15.01575191,0.000309,69.9987,153.5527,271.6605,227.8586,-0.026879,-0.00333156,0.0,0 STARLINK-3096,1 49131U 21082B   22141.91667824 -.00333156  00000-0 -26879-1 0  9990,2 49131  69.9987 153.5527 0003090 271.6605 227.8586 15.01575191 39088,6940.175,95.899,564.185,559.896,0.0
49131.0,STARLINK-3096,PAYLOAD,2022-05-22 06:00:00,15.01399934,0.0003202,70.0,152.7057,281.5077,219.3515,-0.045794,-0.00554134,0.0,0 STARLINK-3096,1 49131U 21082B   22142.25001157 -.00554134  00000-0 -45794-1 0  9997,2 49131  70.0000 152.7057 0003202 281.5077 219.3515 15.01399934 39137,6940.715999999999,95.91,564.803,560.3580000000002,0.0
49131.0,STARLINK-3096,PAYLOAD,2022-05-22 14:00:01,15.0101006,0.0003138,69.9997,151.861,272.0136,229.6643,-0.046321,-0.00554731,0.0,0 STARLINK-3096,1 49131U 21082B   22142.58334491 -.00554731  00000-0 -46321-1 0  9993,2 49131  69.9997 151.8610 0003138 272.0136 229.6643 15.01010060 39184,6941.917,95.935,565.961,561.604,0.0
49131.0,STARLINK-3096,PAYLOAD,2022-05-22 22:00:01,15.00618409,0.0003136,69.9999,151.0172,271.6159,230.5853,-0.046822,-0.00554964,0.0,0 STARLINK-3096,1 49131U 21082B   22142.91668981 -.00554964  00000-0 -46822-1 0  9998,2 49131  69.9999 151.0172 0003136 271.6159 230.5853 15.00618409  1306,6943.125,95.96,567.168,562.813,0.0
49131.0,STARLINK-3096,PAYLOAD,2022-05-23 14:00:01,14.99835974,0.0003123,69.9997,149.3307,271.7097,229.9416,-0.047789,-0.00554913,0.0,0 STARLINK-3096,1 49131U 21082B   22143.58334491 -.00554913  00000-0 -47789-1 0  9995,2 49131  69.9997 149.3307 0003123 271.7097 229.9416 14.99835974  1304,6945.54,96.01,569.5740000000002,565.236,0.0
49131.0,STARLINK-3096,PAYLOAD,2022-05-23 16:00:00,14.99686537,0.0003123999999999,69.9993,149.1209,274.7016,316.7821,-0.041363,-0.00482594,0.0,0 STARLINK-3096,1 49131U 21082B   22143.66667824 -.00482594  00000-0 -41363-1 0  9990,2 49131  69.9993 149.1209 0003124 274.7016 316.7821 14.99686537 39343,6946.001,96.02,570.036,565.696,0.0
49131.0,STARLINK-3096,PAYLOAD,2022-05-23 22:00:01,14.99444243,0.0003137,70.0,148.4884,274.1719,226.5946,-0.048286,-0.00554963,0.0,0 STARLINK-3096,1 49131U 21082B   22143.91668981 -.00554963  00000-0 -48286-1 0  9994,2 49131  70.0000 148.4884 0003137 274.1719 226.5946 14.99444243  1301,6946.749,96.036,570.794,566.435,0.0
49131.0,STARLINK-3096,PAYLOAD,2022-05-24 06:00:02,14.99052602,0.0003162,70.0,147.6466,279.0473,220.3025,-0.048818,-0.00555344,0.0,0 STARLINK-3096,1 49131U 21082B   22144.25002315 -.00555344  00000-0 -48818-1 0  9990,2 49131  70.0000 147.6466 0003162 279.0473 220.3025 14.99052602 39436,6947.959,96.061,572.021,567.627,0.0
49131.0,STARLINK-3096,PAYLOAD,2022-05-24 14:00:01,14.98586648,0.0003141,69.9998,146.8052,268.5894,228.825,-0.030189,-0.00345414,0.0,0 STARLINK-3096,1 49131U 21082B   22144.58334491 -.00345414  00000-0 -30189-1 0  9996,2 49131  69.9998 146.8052 0003141 268.5894 228.8250 14.98586648  1307,6949.399,96.091,573.447,569.082,0.0
49131.0,STARLINK-3096,PAYLOAD,2022-05-24 22:00:00,14.98330358,0.0003177,70.0,145.9646,276.0917,218.9604,-4.0692e-05,-5.79e-06,0.0,0 STARLINK-3096,1 49131U 21082B   22144.91667824 -.00000579  00000-0 -40692-4 0  9995,2 49131  70.0000 145.9646 0003177 276.0917 218.9604 14.98330358 39536,6950.191999999999,96.107,574.265,569.849,0.0
49131.0,STARLINK-3096,PAYLOAD,2022-05-25 06:00:00,14.98347118,0.0002983,69.9981,145.1296,275.3192,217.3184,-0.0010375,-0.00012456,0.0,0 STARLINK-3096,1 49131U 21082B   22145.25001157 -.00012456  00000-0 -10375-2 0  9994,2 49131  69.9981 145.1296 0002983 275.3192 217.3184 14.98347118 39588,6950.14,96.106,574.078,569.932,0.0
49131.0,STARLINK-3096,PAYLOAD,2022-05-25 14:00:01,14.9837695,0.0002955,69.9969,144.2901,277.6908,212.437,-0.0066205,-0.00078307,0.0,0 STARLINK-3096,1 49131U 21082B   22145.58334491 -.00078307  00000-0 -66205-2 0  9990,2 49131  69.9969 144.2901 0002955 277.6908 212.4370 14.98376950  1304,6950.0480000000025,96.104,573.966,569.859,0.0
49131.0,STARLINK-3096,PAYLOAD,2022-05-25 22:00:00,14.98303662,0.0003025,69.997,143.4495,271.16,216.486,0.0034188,0.00040911,0.0,0 STARLINK-3096,1 49131U 21082B   22145.91667824  .00040911  00000-0  34188-2 0  9999,2 49131  69.9970 143.4495 0003025 271.1600 216.4860 14.98303662  1300,6950.274,96.109,574.242,570.0369999999998,0.0
49131.0,STARLINK-3096,PAYLOAD,2022-05-26 10:15:01,14.98583065,0.0003265,69.9951,142.1628,269.8914,90.1871,-0.0041366,-0.00049428,0.0,0 STARLINK-3096,1 49131U 21082B   22146.42710599 -.00049428  00000-0 -41366-2 0  9994,2 49131  69.9951 142.1628 0003265 269.8914  90.1871 14.98583065 39768,6949.41,96.091,573.544,569.006,0.0
49131.0,STARLINK-3096,PAYLOAD,2022-05-26 22:00:00,14.98303154,0.0002978,69.9967,140.9277,271.1239,208.9424,0.0039485,0.00047306,0.0,0 STARLINK-3096,1 49131U 21082B   22146.91667824  .00047306  00000-0  39485-2 0  9990,2 49131  69.9967 140.9277 0002978 271.1239 208.9424 14.98303154 39837,6950.276,96.109,574.211,570.071,0.0
49131.0,STARLINK-3096,PAYLOAD,2022-05-27 10:17:03,14.98329816,0.000302,69.9963,139.6368,274.9546,85.1268,-0.00010268,-1.318e-05,0.0,0 STARLINK-3096,1 49131U 21082B   22147.42851140 -.00001318  00000-0 -10268-3 0  9997,2 49131  69.9963 139.6368 0003020 274.9546  85.1268 14.98329816 39913,6950.193,96.107,574.1569999999998,569.96,0.0
49131.0,STARLINK-3096,PAYLOAD,2022-05-27 16:00:00,14.98358075,0.0002965,69.9988,139.0327,276.7428,287.6413,-0.0024774,-0.0002955,0.0,0 STARLINK-3096,1 49131U 21082B   22147.66667824 -.00029550  00000-0 -24774-2 0  9991,2 49131  69.9988 139.0327 0002965 276.7428 287.6413 14.98358075 39948,6950.106,96.105,574.0319999999998,569.91,0.0
49131.0,STARLINK-3096,PAYLOAD,2022-05-27 22:00:01,14.98332345,0.0002921,69.9996,138.4011,272.9004,199.6819,-0.00032822,-4.007e-05,0.0,0 STARLINK-3096,1 49131U 21082B   22147.91668981 -.00004007  00000-0 -32822-3 0  9998,2 49131  69.9996 138.4011 0002921 272.9004 199.6819 14.98332345  1303,6950.186,96.107,574.081,570.02,0.0
49131.0,STARLINK-3096,PAYLOAD,2022-05-28 14:00:01,14.9835698,0.0003016,69.9963,136.7244,275.8771,191.5866,-0.0041503,-0.00049302,0.0,0 STARLINK-3096,1 49131U 21082B   22148.58334491 -.00049302  00000-0 -41503-2 0  9990,2 49131  69.9963 136.7244 0003016 275.8771 191.5866 14.98356980 40087,6950.109,96.105,574.071,569.878,0.0
49131.0,STARLINK-3096,PAYLOAD,2022-05-28 22:00:00,14.98323086,0.0003016,69.9967,135.8839,269.5724,195.3881,0.0035246,0.00042209,0.0,0 STARLINK-3096,1 49131U 21082B   22148.91667824  .00042209  00000-0  35246-2 0  9990,2 49131  69.9967 135.8839 0003016 269.5724 195.3881 14.98323086  1301,6950.214,96.107,574.175,569.9830000000002,0.0
49131.0,STARLINK-3096,PAYLOAD,2022-05-29 06:00:02,14.98336702,0.0003064,69.9968,135.0433,274.8649,187.6544,0.00011755,1.31e-05,0.0,0 STARLINK-3096,1 49131U 21082B   22149.25002315  .00001310  00000-0  11755-3 0  9994,2 49131  69.9968 135.0433 0003064 274.8649 187.6544 14.98336702 40180,6950.172,96.107,574.1669999999998,569.908,0.0
49131.0,STARLINK-3096,PAYLOAD,2022-05-29 14:00:01,14.98363065,0.0003037,69.9966,134.2026,275.3274,184.6145,-0.0042133999999999,-0.00050052,0.0,0 STARLINK-3096,1 49131U 21082B   22149.58334491 -.00050052  00000-0 -42134-2 0  9996,2 49131  69.9966 134.2026 0003037 275.3274 184.6145 14.98363065  1304,6950.090999999999,96.105,574.066,569.845,0.0
49131.0,STARLINK-3096,PAYLOAD,2022-05-29 22:00:00,14.98342618,0.0002987,69.997,133.362,269.6646,187.7773,-0.00094573,-0.00011363,0.0,0 STARLINK-3096,1 49131U 21082B   22149.91667824 -.00011363  00000-0 -94573-3 0  9999,2 49131  69.9970 133.3620 0002987 269.6646 187.7773 14.98342618  1303,6950.154,96.106,574.095,569.943,0.0
49131.0,STARLINK-3096,PAYLOAD,2022-05-30 14:00:01,14.98342153,0.0002898,69.997,131.681,275.4372,176.9675,-0.0042117,-0.00050005,0.0,0 STARLINK-3096,1 49131U 21082B   22150.58334491 -.00050005  00000-0 -42117-2 0  9997,2 49131  69.9970 131.6810 0002898 275.4372 176.9675 14.98342153 40383,6950.155,96.106,574.034,570.006,0.0
